[{"OBJECT_NAME":"OBJECT F","OBJECT_ID":"2023-072F","EPOCH":"2026-03-09T23:31:37.259904","MEAN_MOTION":15.29470958,"ECCENTRICITY":0.00062878,"INCLINATION":97.5173,"RA_OF_ASC_NODE":265.798,"ARG_OF_PERICENTER":19.0017,"MEAN_ANOMALY":341.1456,"EPHEMERIS_TYPE":0,"CLASSIFICATION_TYPE":"U","NORAD_CAT_ID":56748,"ELEMENT_SET_NO":999,"REV_AT_EPOCH":15460,"BSTAR":0.00043416252,"MEAN_MOTION_DOT":0.00012341,"MEAN_MOTION_DDOT":0},{"OBJECT_NAME":"STARLINK-35290","OBJECT_ID":"2025-221Z","EPOCH":"2026-03-09T10:04:00.016896","MEAN_MOTION":15.30207843,"ECCENTRICITY":0.00011631,"INCLINATION":53.1587,"RA_OF_ASC_NODE":89.4805,"ARG_OF_PERICENTER":94.7461,"MEAN_ANOMALY":265.3672,"EPHEMERIS_TYPE":0,"CLASSIFICATION_TYPE":"U","NORAD_CAT_ID":65846,"ELEMENT_SET_NO":999,"REV_AT_EPOCH":2469,"BSTAR":0.00081993679,"MEAN_MOTION_DOT":0.00024009,"MEAN_MOTION_DDOT":0}]
